[{"OBJECT_NAME":"STARLINK-30891","OBJECT_ID":"2023-177S","EPOCH":"2026-03-09T22:00:01.999584","MEAN_MOTION":15.26740347,"ECCENTRICITY":0.00018319,"INCLINATION":43.0007,"RA_OF_ASC_NODE":349.2677,"ARG_OF_PERICENTER":272.1296,"MEAN_ANOMALY":54.5154,"EPHEMERIS_TYPE":0,"CLASSIFICATION_TYPE":"U","NORAD_CAT_ID":58367,"ELEMENT_SET_NO":999,"REV_AT_EPOCH":557,"BSTAR":-0.00025264736,"MEAN_MOTION_DOT":-7.031e-5,"MEAN_MOTION_DDOT":0},{"OBJECT_NAME":"OBJECT H","OBJECT_ID":"2025-155H","EPOCH":"2026-03-09T22:09:58.611456","MEAN_MOTION":15.27590961,"ECCENTRICITY":0.00081993,"INCLINATION":97.4482,"RA_OF_ASC_NODE":37.3122,"ARG_OF_PERICENTER":152.0629,"MEAN_ANOMALY":208.1051,"EPHEMERIS_TYPE":0,"CLASSIFICATION_TYPE":"U","NORAD_CAT_ID":64883,"ELEMENT_SET_NO":999,"REV_AT_EPOCH":6559,"BSTAR":0.00050403256,"MEAN_MOTION_DOT":0.00013547,"MEAN_MOTION_DDOT":0}]
